[{"OBJECT_NAME":"TIANMU-1 09","OBJECT_ID":"2023-101C","EPOCH":"2026-03-09T22:17:34.703232","MEAN_MOTION":15.29080822,"ECCENTRICITY":0.00049013,"INCLINATION":97.267,"RA_OF_ASC_NODE":121.1263,"ARG_OF_PERICENTER":139.4293,"MEAN_ANOMALY":220.7314,"EPHEMERIS_TYPE":0,"CLASSIFICATION_TYPE":"U","NORAD_CAT_ID":57401,"ELEMENT_SET_NO":999,"REV_AT_EPOCH":14647,"BSTAR":0.00030540035,"MEAN_MOTION_DOT":8.553e-5,"MEAN_MOTION_DDOT":0},{"OBJECT_NAME":"STARLINK-35604","OBJECT_ID":"2025-278M","EPOCH":"2026-03-09T11:18:15.253632","MEAN_MOTION":15.27595646,"ECCENTRICITY":0.00011141,"INCLINATION":42.9978,"RA_OF_ASC_NODE":115.7689,"ARG_OF_PERICENTER":265.1782,"MEAN_ANOMALY":94.8942,"EPHEMERIS_TYPE":0,"CLASSIFICATION_TYPE":"U","NORAD_CAT_ID":66802,"ELEMENT_SET_NO":999,"REV_AT_EPOCH":1517,"BSTAR":0.00098869913,"MEAN_MOTION_DOT":0.00027058,"MEAN_MOTION_DDOT":0}]
